<?xml version='1.0' encoding='UTF-8'?>
<gpx version="1.1" creator="https://www.komoot.de" xmlns="http://www.topografix.com/GPX/1/1" xmlns:xsi="http://www.w3.org/2001/XMLSchema-instance" xsi:schemaLocation="http://www.topografix.com/GPX/1/1 http://www.topografix.com/GPX/1/1/gpx.xsd">
  <metadata>
    <name>Fahrradtour 21.06.2020</name>
    <author>
      <link href="https://www.komoot.de">
        <text>komoot</text>
        <type>text/html</type>
      </link>
    </author>
  </metadata>
  <trk>
    <name>Fahrradtour 21.06.2020</name>
    <trkseg>
      <trkpt lat="48.370756" lon="9.126480">
        <ele>725.905948</ele>
        <time>2020-06-21T16:33:43.000Z</time>
      </trkpt>
      <trkpt lat="48.370756" lon="9.126480">
        <ele>725.905948</ele>
        <time>2020-06-21T16:33:44.000Z</time>
      </trkpt>
      <trkpt lat="48.370756" lon="9.126480">
        <ele>725.905948</ele>
        <time>2020-06-21T16:33:45.000Z</time>
      </trkpt>
      <trkpt lat="48.370756" lon="9.126480">
        <ele>725.905948</ele>
        <time>2020-06-21T16:33:46.000Z</time>
      </trkpt>
      <trkpt lat="48.370756" lon="9.126480">
        <ele>725.905948</ele>
        <time>2020-06-21T16:33:47.000Z</time>
      </trkpt>
      <trkpt lat="48.370756" lon="9.126480">
        <ele>725.905948</ele>
        <time>2020-06-21T16:33:48.000Z</time>
      </trkpt>
      <trkpt lat="48.370756" lon="9.126480">
        <ele>725.905948</ele>
        <time>2020-06-21T16:33:49.000Z</time>
      </trkpt>
      <trkpt lat="48.370752" lon="9.126537">
        <ele>725.905948</ele>
        <time>2020-06-21T16:33:50.000Z</time>
      </trkpt>
      <trkpt lat="48.370766" lon="9.126730">
        <ele>725.905948</ele>
        <time>2020-06-21T16:33:53.000Z</time>
      </trkpt>
      <trkpt lat="48.370779" lon="9.126798">
        <ele>725.905948</ele>
        <time>2020-06-21T16:33:54.000Z</time>
      </trkpt>
      <trkpt lat="48.370803" lon="9.126868">
        <ele>725.905948</ele>
        <time>2020-06-21T16:33:55.000Z</time>
      </trkpt>
      <trkpt lat="48.370822" lon="9.126883">
        <ele>725.905948</ele>
        <time>2020-06-21T16:33:56.000Z</time>
      </trkpt>
      <trkpt lat="48.370848" lon="9.126978">
        <ele>725.905948</ele>
        <time>2020-06-21T16:33:57.000Z</time>
      </trkpt>
      <trkpt lat="48.370866" lon="9.127049">
        <ele>725.905948</ele>
        <time>2020-06-21T16:33:58.000Z</time>
      </trkpt>
      <trkpt lat="48.370884" lon="9.127124">
        <ele>725.905948</ele>
        <time>2020-06-21T16:33:59.000Z</time>
      </trkpt>
      <trkpt lat="48.370904" lon="9.127197">
        <ele>725.905948</ele>
        <time>2020-06-21T16:34:00.000Z</time>
      </trkpt>
      <trkpt lat="48.370937" lon="9.127340">
        <ele>725.905948</ele>
        <time>2020-06-21T16:34:02.000Z</time>
      </trkpt>
      <trkpt lat="48.370948" lon="9.127409">
        <ele>725.905948</ele>
        <time>2020-06-21T16:34:03.000Z</time>
      </trkpt>
      <trkpt lat="48.370961" lon="9.127476">
        <ele>725.905948</ele>
        <time>2020-06-21T16:34:04.000Z</time>
      </trkpt>
      <trkpt lat="48.370975" lon="9.127545">
        <ele>725.905948</ele>
        <time>2020-06-21T16:34:05.000Z</time>
      </trkpt>
      <trkpt lat="48.370989" lon="9.127616">
        <ele>725.905948</ele>
        <time>2020-06-21T16:34:06.000Z</time>
      </trkpt>
      <trkpt lat="48.371008" lon="9.127685">
        <ele>725.905948</ele>
        <time>2020-06-21T16:34:07.000Z</time>
      </trkpt>
      <trkpt lat="48.371027" lon="9.127755">
        <ele>725.908880</ele>
        <time>2020-06-21T16:34:08.000Z</time>
      </trkpt>
      <trkpt lat="48.371043" lon="9.127825">
        <ele>725.947443</ele>
        <time>2020-06-21T16:34:09.000Z</time>
      </trkpt>
      <trkpt lat="48.371059" lon="9.127901">
        <ele>725.988975</ele>
        <time>2020-06-21T16:34:10.000Z</time>
      </trkpt>
      <trkpt lat="48.371075" lon="9.127977">
        <ele>726.030506</ele>
        <time>2020-06-21T16:34:11.000Z</time>
      </trkpt>
      <trkpt lat="48.371090" lon="9.128052">
        <ele>726.071308</ele>
        <time>2020-06-21T16:34:12.000Z</time>
      </trkpt>
      <trkpt lat="48.371105" lon="9.128126">
        <ele>726.111612</ele>
        <time>2020-06-21T16:34:13.000Z</time>
      </trkpt>
      <trkpt lat="48.371119" lon="9.128200">
        <ele>726.151693</ele>
        <time>2020-06-21T16:34:14.000Z</time>
      </trkpt>
      <trkpt lat="48.371152" lon="9.128424">
        <ele>726.271217</ele>
        <time>2020-06-21T16:34:17.000Z</time>
      </trkpt>
      <trkpt lat="48.371162" lon="9.128501">
        <ele>726.312088</ele>
        <time>2020-06-21T16:34:18.000Z</time>
      </trkpt>
      <trkpt lat="48.371174" lon="9.128578">
        <ele>726.353289</ele>
        <time>2020-06-21T16:34:19.000Z</time>
      </trkpt>
      <trkpt lat="48.371195" lon="9.128732">
        <ele>726.435185</ele>
        <time>2020-06-21T16:34:21.000Z</time>
      </trkpt>
      <trkpt lat="48.371206" lon="9.128813">
        <ele>726.478253</ele>
        <time>2020-06-21T16:34:22.000Z</time>
      </trkpt>
      <trkpt lat="48.371216" lon="9.128896">
        <ele>726.522196</ele>
        <time>2020-06-21T16:34:23.000Z</time>
      </trkpt>
      <trkpt lat="48.371236" lon="9.129056">
        <ele>726.607007</ele>
        <time>2020-06-21T16:34:25.000Z</time>
      </trkpt>
      <trkpt lat="48.371264" lon="9.129213">
        <ele>726.691689</ele>
        <time>2020-06-21T16:34:27.000Z</time>
      </trkpt>
      <trkpt lat="48.371289" lon="9.129370">
        <ele>726.775792</ele>
        <time>2020-06-21T16:34:29.000Z</time>
      </trkpt>
      <trkpt lat="48.371386" lon="9.130074">
        <ele>727.150332</ele>
        <time>2020-06-21T16:34:38.000Z</time>
      </trkpt>
      <trkpt lat="48.371407" lon="9.130224">
        <ele>727.230187</ele>
        <time>2020-06-21T16:34:40.000Z</time>
      </trkpt>
      <trkpt lat="48.371418" lon="9.130299">
        <ele>727.270198</ele>
        <time>2020-06-21T16:34:41.000Z</time>
      </trkpt>
      <trkpt lat="48.371428" lon="9.130375">
        <ele>727.310558</ele>
        <time>2020-06-21T16:34:42.000Z</time>
      </trkpt>
      <trkpt lat="48.371439" lon="9.130452">
        <ele>726.700561</ele>
        <time>2020-06-21T16:34:43.000Z</time>
      </trkpt>
      <trkpt lat="48.371451" lon="9.130528">
        <ele>725.988261</ele>
        <time>2020-06-21T16:34:44.000Z</time>
      </trkpt>
      <trkpt lat="48.371469" lon="9.130686">
        <ele>724.526531</ele>
        <time>2020-06-21T16:34:46.000Z</time>
      </trkpt>
      <trkpt lat="48.371489" lon="9.130841">
        <ele>723.086775</ele>
        <time>2020-06-21T16:34:48.000Z</time>
      </trkpt>
      <trkpt lat="48.371530" lon="9.131159">
        <ele>720.133038</ele>
        <time>2020-06-21T16:34:52.000Z</time>
      </trkpt>
      <trkpt lat="48.371539" lon="9.131236">
        <ele>719.420142</ele>
        <time>2020-06-21T16:34:53.000Z</time>
      </trkpt>
      <trkpt lat="48.371548" lon="9.131312">
        <ele>718.716225</ele>
        <time>2020-06-21T16:34:54.000Z</time>
      </trkpt>
      <trkpt lat="48.371558" lon="9.131389">
        <ele>718.000822</ele>
        <time>2020-06-21T16:34:55.000Z</time>
      </trkpt>
      <trkpt lat="48.371594" lon="9.131624">
        <ele>715.801780</ele>
        <time>2020-06-21T16:34:58.000Z</time>
      </trkpt>
      <trkpt lat="48.371669" lon="9.132094">
        <ele>711.394263</ele>
        <time>2020-06-21T16:35:04.000Z</time>
      </trkpt>
      <trkpt lat="48.371669" lon="9.132094">
        <ele>711.394263</ele>
        <time>2020-06-21T16:35:05.000Z</time>
      </trkpt>
      <trkpt lat="48.371680" lon="9.132168">
        <ele>710.702822</ele>
        <time>2020-06-21T16:35:06.000Z</time>
      </trkpt>
      <trkpt lat="48.371697" lon="9.132294">
        <ele>709.530459</ele>
        <time>2020-06-21T16:35:07.000Z</time>
      </trkpt>
      <trkpt lat="48.371703" lon="9.132350">
        <ele>709.013236</ele>
        <time>2020-06-21T16:35:08.000Z</time>
      </trkpt>
      <trkpt lat="48.371709" lon="9.132403">
        <ele>708.522999</ele>
        <time>2020-06-21T16:35:09.000Z</time>
      </trkpt>
      <trkpt lat="48.371714" lon="9.132451">
        <ele>708.079973</ele>
        <time>2020-06-21T16:35:10.000Z</time>
      </trkpt>
      <trkpt lat="48.371718" lon="9.132493">
        <ele>707.693089</ele>
        <time>2020-06-21T16:35:11.000Z</time>
      </trkpt>
      <trkpt lat="48.371720" lon="9.132531">
        <ele>707.345508</ele>
        <time>2020-06-21T16:35:12.000Z</time>
      </trkpt>
      <trkpt lat="48.371729" lon="9.132598">
        <ele>706.722218</ele>
        <time>2020-06-21T16:35:14.000Z</time>
      </trkpt>
      <trkpt lat="48.371739" lon="9.132690">
        <ele>705.872180</ele>
        <time>2020-06-21T16:35:17.000Z</time>
      </trkpt>
      <trkpt lat="48.371749" lon="9.132767">
        <ele>705.156780</ele>
        <time>2020-06-21T16:35:20.000Z</time>
      </trkpt>
      <trkpt lat="48.371751" lon="9.132791">
        <ele>704.936226</ele>
        <time>2020-06-21T16:35:21.000Z</time>
      </trkpt>
      <trkpt lat="48.371752" lon="9.132812">
        <ele>704.744251</ele>
        <time>2020-06-21T16:35:22.000Z</time>
      </trkpt>
      <trkpt lat="48.371755" lon="9.132856">
        <ele>704.340939</ele>
        <time>2020-06-21T16:35:24.000Z</time>
      </trkpt>
      <trkpt lat="48.371758" lon="9.132895">
        <ele>703.982949</ele>
        <time>2020-06-21T16:35:26.000Z</time>
      </trkpt>
      <trkpt lat="48.371760" lon="9.132931">
        <ele>703.653545</ele>
        <time>2020-06-21T16:35:28.000Z</time>
      </trkpt>
      <trkpt lat="48.371763" lon="9.132961">
        <ele>703.376915</ele>
        <time>2020-06-21T16:35:30.000Z</time>
      </trkpt>
      <trkpt lat="48.371770" lon="9.132983">
        <ele>703.154489</ele>
        <time>2020-06-21T16:35:33.000Z</time>
      </trkpt>
      <trkpt lat="48.371771" lon="9.132989">
        <ele>703.098083</ele>
        <time>2020-06-21T16:35:34.000Z</time>
      </trkpt>
      <trkpt lat="48.371770" lon="9.132993">
        <ele>703.059113</ele>
        <time>2020-06-21T16:35:35.000Z</time>
      </trkpt>
      <trkpt lat="48.371771" lon="9.133004">
        <ele>702.957877</ele>
        <time>2020-06-21T16:35:37.000Z</time>
      </trkpt>
      <trkpt lat="48.371770" lon="9.133007">
        <ele>702.927271</ele>
        <time>2020-06-21T16:35:38.000Z</time>
      </trkpt>
      <trkpt lat="48.371770" lon="9.133018">
        <ele>702.826970</ele>
        <time>2020-06-21T16:35:39.000Z</time>
      </trkpt>
      <trkpt lat="48.371773" lon="9.133030">
        <ele>702.710059</ele>
        <time>2020-06-21T16:35:41.000Z</time>
      </trkpt>
      <trkpt lat="48.371776" lon="9.133041">
        <ele>702.657709</ele>
        <time>2020-06-21T16:35:42.000Z</time>
      </trkpt>
      <trkpt lat="48.371775" lon="9.133049">
        <ele>702.742809</ele>
        <time>2020-06-21T16:35:43.000Z</time>
      </trkpt>
      <trkpt lat="48.371775" lon="9.133055">
        <ele>702.805533</ele>
        <time>2020-06-21T16:35:44.000Z</time>
      </trkpt>
      <trkpt lat="48.371775" lon="9.133064">
        <ele>702.899619</ele>
        <time>2020-06-21T16:35:45.000Z</time>
      </trkpt>
      <trkpt lat="48.371775" lon="9.133064">
        <ele>702.899619</ele>
        <time>2020-06-21T16:35:46.000Z</time>
      </trkpt>
      <trkpt lat="48.371775" lon="9.133112">
        <ele>703.401412</ele>
        <time>2020-06-21T16:35:48.000Z</time>
      </trkpt>
      <trkpt lat="48.371779" lon="9.133179">
        <ele>704.104655</ele>
        <time>2020-06-21T16:35:50.000Z</time>
      </trkpt>
      <trkpt lat="48.371783" lon="9.133224">
        <ele>704.579278</ele>
        <time>2020-06-21T16:35:51.000Z</time>
      </trkpt>
      <trkpt lat="48.371791" lon="9.133278">
        <ele>705.157663</ele>
        <time>2020-06-21T16:35:52.000Z</time>
      </trkpt>
      <trkpt lat="48.371799" lon="9.133336">
        <ele>705.776928</ele>
        <time>2020-06-21T16:35:53.000Z</time>
      </trkpt>
      <trkpt lat="48.371817" lon="9.133458">
        <ele>707.083396</ele>
        <time>2020-06-21T16:35:55.000Z</time>
      </trkpt>
      <trkpt lat="48.371836" lon="9.133589">
        <ele>708.485133</ele>
        <time>2020-06-21T16:35:57.000Z</time>
      </trkpt>
      <trkpt lat="48.371846" lon="9.133657">
        <ele>709.213216</ele>
        <time>2020-06-21T16:35:58.000Z</time>
      </trkpt>
      <trkpt lat="48.371874" lon="9.133797">
        <ele>710.741669</ele>
        <time>2020-06-21T16:36:00.000Z</time>
      </trkpt>
      <trkpt lat="48.371908" lon="9.134028">
        <ele>713.215108</ele>
        <time>2020-06-21T16:36:03.000Z</time>
      </trkpt>
      <trkpt lat="48.371921" lon="9.134108">
        <ele>714.076087</ele>
        <time>2020-06-21T16:36:04.000Z</time>
      </trkpt>
      <trkpt lat="48.371935" lon="9.134189">
        <ele>714.951052</ele>
        <time>2020-06-21T16:36:05.000Z</time>
      </trkpt>
      <trkpt lat="48.371982" lon="9.134442">
        <ele>717.697384</ele>
        <time>2020-06-21T16:36:08.000Z</time>
      </trkpt>
      <trkpt lat="48.372058" lon="9.134779">
        <ele>721.417853</ele>
        <time>2020-06-21T16:36:12.000Z</time>
      </trkpt>
      <trkpt lat="48.372089" lon="9.134944">
        <ele>723.210417</ele>
        <time>2020-06-21T16:36:14.000Z</time>
      </trkpt>
      <trkpt lat="48.372128" lon="9.135107">
        <ele>725.021571</ele>
        <time>2020-06-21T16:36:16.000Z</time>
      </trkpt>
      <trkpt lat="48.372221" lon="9.135522">
        <ele>729.600167</ele>
        <time>2020-06-21T16:36:21.000Z</time>
      </trkpt>
      <trkpt lat="48.372240" lon="9.135605">
        <ele>730.517916</ele>
        <time>2020-06-21T16:36:22.000Z</time>
      </trkpt>
      <trkpt lat="48.372259" lon="9.135689">
        <ele>731.351050</ele>
        <time>2020-06-21T16:36:23.000Z</time>
      </trkpt>
      <trkpt lat="48.372300" lon="9.135858">
        <ele>732.885069</ele>
        <time>2020-06-21T16:36:25.000Z</time>
      </trkpt>
      <trkpt lat="48.372321" lon="9.135942">
        <ele>733.650312</ele>
        <time>2020-06-21T16:36:26.000Z</time>
      </trkpt>
      <trkpt lat="48.372387" lon="9.136195">
        <ele>735.967817</ele>
        <time>2020-06-21T16:36:29.000Z</time>
      </trkpt>
      <trkpt lat="48.372445" lon="9.136417">
        <ele>738.001764</ele>
        <time>2020-06-21T16:36:32.000Z</time>
      </trkpt>
      <trkpt lat="48.372459" lon="9.136463">
        <ele>738.433174</ele>
        <time>2020-06-21T16:36:33.000Z</time>
      </trkpt>
      <trkpt lat="48.372488" lon="9.136481">
        <ele>738.835791</ele>
        <time>2020-06-21T16:36:35.000Z</time>
      </trkpt>
      <trkpt lat="48.372498" lon="9.136435">
        <ele>739.248463</ele>
        <time>2020-06-21T16:36:38.000Z</time>
      </trkpt>
      <trkpt lat="48.372474" lon="9.136421">
        <ele>739.578825</ele>
        <time>2020-06-21T16:36:39.000Z</time>
      </trkpt>
      <trkpt lat="48.372472" lon="9.136439">
        <ele>739.734429</ele>
        <time>2020-06-21T16:36:41.000Z</time>
      </trkpt>
      <trkpt lat="48.372494" lon="9.136450">
        <ele>740.031970</ele>
        <time>2020-06-21T16:36:42.000Z</time>
      </trkpt>
      <trkpt lat="48.372494" lon="9.136450">
        <ele>740.031970</ele>
        <time>2020-06-21T16:36:43.000Z</time>
      </trkpt>
      <trkpt lat="48.372495" lon="9.136412">
        <ele>740.356219</ele>
        <time>2020-06-21T16:36:44.000Z</time>
      </trkpt>
      <trkpt lat="48.372469" lon="9.136425">
        <ele>740.707858</ele>
        <time>2020-06-21T16:36:46.000Z</time>
      </trkpt>
      <trkpt lat="48.372472" lon="9.136446">
        <ele>740.891002</ele>
        <time>2020-06-21T16:36:47.000Z</time>
      </trkpt>
      <trkpt lat="48.372485" lon="9.136457">
        <ele>741.082411</ele>
        <time>2020-06-21T16:36:48.000Z</time>
      </trkpt>
      <trkpt lat="48.372485" lon="9.136457">
        <ele>741.082411</ele>
        <time>2020-06-21T16:36:49.000Z</time>
      </trkpt>
      <trkpt lat="48.372504" lon="9.136418">
        <ele>741.494772</ele>
        <time>2020-06-21T16:36:50.000Z</time>
      </trkpt>
      <trkpt lat="48.372495" lon="9.136394">
        <ele>741.729755</ele>
        <time>2020-06-21T16:36:51.000Z</time>
      </trkpt>
      <trkpt lat="48.372478" lon="9.136386">
        <ele>741.958365</ele>
        <time>2020-06-21T16:36:52.000Z</time>
      </trkpt>
      <trkpt lat="48.372467" lon="9.136412">
        <ele>742.221188</ele>
        <time>2020-06-21T16:36:54.000Z</time>
      </trkpt>
      <trkpt lat="48.372494" lon="9.136412">
        <ele>742.567737</ele>
        <time>2020-06-21T16:36:56.000Z</time>
      </trkpt>
      <trkpt lat="48.372502" lon="9.136395">
        <ele>742.745367</ele>
        <time>2020-06-21T16:36:57.000Z</time>
      </trkpt>
      <trkpt lat="48.372514" lon="9.136380">
        <ele>742.945565</ele>
        <time>2020-06-21T16:36:58.000Z</time>
      </trkpt>
      <trkpt lat="48.372529" lon="9.136379">
        <ele>743.138281</ele>
        <time>2020-06-21T16:36:59.000Z</time>
      </trkpt>
      <trkpt lat="48.372534" lon="9.136389">
        <ele>743.244996</ele>
        <time>2020-06-21T16:37:00.000Z</time>
      </trkpt>
      <trkpt lat="48.372534" lon="9.136389">
        <ele>743.244996</ele>
        <time>2020-06-21T16:37:01.000Z</time>
      </trkpt>
      <trkpt lat="48.372502" lon="9.136403">
        <ele>743.672714</ele>
        <time>2020-06-21T16:37:02.000Z</time>
      </trkpt>
      <trkpt lat="48.372487" lon="9.136385">
        <ele>743.918925</ele>
        <time>2020-06-21T16:37:03.000Z</time>
      </trkpt>
      <trkpt lat="48.372521" lon="9.136372">
        <ele>744.369176</ele>
        <time>2020-06-21T16:37:06.000Z</time>
      </trkpt>
      <trkpt lat="48.372521" lon="9.136372">
        <ele>744.369176</ele>
        <time>2020-06-21T16:37:07.000Z</time>
      </trkpt>
      <trkpt lat="48.372510" lon="9.136418">
        <ele>744.786019</ele>
        <time>2020-06-21T16:37:08.000Z</time>
      </trkpt>
      <trkpt lat="48.372494" lon="9.136423">
        <ele>744.995760</ele>
        <time>2020-06-21T16:37:09.000Z</time>
      </trkpt>
      <trkpt lat="48.372488" lon="9.136379">
        <ele>745.378735</ele>
        <time>2020-06-21T16:37:12.000Z</time>
      </trkpt>
      <trkpt lat="48.372498" lon="9.136368">
        <ele>745.537701</ele>
        <time>2020-06-21T16:37:13.000Z</time>
      </trkpt>
      <trkpt lat="48.372490" lon="9.136415">
        <ele>745.951378</ele>
        <time>2020-06-21T16:37:15.000Z</time>
      </trkpt>
      <trkpt lat="48.372477" lon="9.136387">
        <ele>746.242642</ele>
        <time>2020-06-21T16:37:16.000Z</time>
      </trkpt>
      <trkpt lat="48.372484" lon="9.136352">
        <ele>746.554291</ele>
        <time>2020-06-21T16:37:18.000Z</time>
      </trkpt>
      <trkpt lat="48.372506" lon="9.136346">
        <ele>746.841260</ele>
        <time>2020-06-21T16:37:19.000Z</time>
      </trkpt>
      <trkpt lat="48.372523" lon="9.136406">
        <ele>747.397421</ele>
        <time>2020-06-21T16:37:20.000Z</time>
      </trkpt>
      <trkpt lat="48.372533" lon="9.136509">
        <ele>748.284948</ele>
        <time>2020-06-21T16:37:22.000Z</time>
      </trkpt>
      <trkpt lat="48.372557" lon="9.136631">
        <ele>749.369795</ele>
        <time>2020-06-21T16:37:24.000Z</time>
      </trkpt>
      <trkpt lat="48.372571" lon="9.136697">
        <ele>749.960517</ele>
        <time>2020-06-21T16:37:25.000Z</time>
      </trkpt>
      <trkpt lat="48.372587" lon="9.136765">
        <ele>750.575593</ele>
        <time>2020-06-21T16:37:26.000Z</time>
      </trkpt>
      <trkpt lat="48.372605" lon="9.136832">
        <ele>751.191796</ele>
        <time>2020-06-21T16:37:27.000Z</time>
      </trkpt>
      <trkpt lat="48.372624" lon="9.136902">
        <ele>751.836528</ele>
        <time>2020-06-21T16:37:28.000Z</time>
      </trkpt>
      <trkpt lat="48.372664" lon="9.137046">
        <ele>753.167317</ele>
        <time>2020-06-21T16:37:30.000Z</time>
      </trkpt>
      <trkpt lat="48.372686" lon="9.137119">
        <ele>753.850784</ele>
        <time>2020-06-21T16:37:31.000Z</time>
      </trkpt>
      <trkpt lat="48.372732" lon="9.137268">
        <ele>754.343111</ele>
        <time>2020-06-21T16:37:33.000Z</time>
      </trkpt>
      <trkpt lat="48.372805" lon="9.137498">
        <ele>754.914714</ele>
        <time>2020-06-21T16:37:36.000Z</time>
      </trkpt>
      <trkpt lat="48.372829" lon="9.137577">
        <ele>755.109512</ele>
        <time>2020-06-21T16:37:37.000Z</time>
      </trkpt>
      <trkpt lat="48.372856" lon="9.137656">
        <ele>755.308734</ele>
        <time>2020-06-21T16:37:38.000Z</time>
      </trkpt>
      <trkpt lat="48.372882" lon="9.137735">
        <ele>755.506435</ele>
        <time>2020-06-21T16:37:39.000Z</time>
      </trkpt>
      <trkpt lat="48.372908" lon="9.137814">
        <ele>755.704136</ele>
        <time>2020-06-21T16:37:40.000Z</time>
      </trkpt>
      <trkpt lat="48.373019" lon="9.138142">
        <ele>756.529592</ele>
        <time>2020-06-21T16:37:44.000Z</time>
      </trkpt>
      <trkpt lat="48.373135" lon="9.138485">
        <ele>757.392679</ele>
        <time>2020-06-21T16:37:48.000Z</time>
      </trkpt>
      <trkpt lat="48.373194" lon="9.138663">
        <ele>757.838757</ele>
        <time>2020-06-21T16:37:50.000Z</time>
      </trkpt>
      <trkpt lat="48.373223" lon="9.138753">
        <ele>758.063063</ele>
        <time>2020-06-21T16:37:51.000Z</time>
      </trkpt>
      <trkpt lat="48.373253" lon="9.138842">
        <ele>758.286861</ele>
        <time>2020-06-21T16:37:52.000Z</time>
      </trkpt>
      <trkpt lat="48.373282" lon="9.138931">
        <ele>758.509151</ele>
        <time>2020-06-21T16:37:53.000Z</time>
      </trkpt>
      <trkpt lat="48.373312" lon="9.139020">
        <ele>758.732948</ele>
        <time>2020-06-21T16:37:54.000Z</time>
      </trkpt>
      <trkpt lat="48.373369" lon="9.139195">
        <ele>759.170002</ele>
        <time>2020-06-21T16:37:56.000Z</time>
      </trkpt>
      <trkpt lat="48.373427" lon="9.139367">
        <ele>759.602543</ele>
        <time>2020-06-21T16:37:58.000Z</time>
      </trkpt>
      <trkpt lat="48.373535" lon="9.139718">
        <ele>760.601290</ele>
        <time>2020-06-21T16:38:02.000Z</time>
      </trkpt>
      <trkpt lat="48.373671" lon="9.140171">
        <ele>762.101899</ele>
        <time>2020-06-21T16:38:07.000Z</time>
      </trkpt>
      <trkpt lat="48.373722" lon="9.140358">
        <ele>762.712104</ele>
        <time>2020-06-21T16:38:09.000Z</time>
      </trkpt>
      <trkpt lat="48.373746" lon="9.140451">
        <ele>763.013276</ele>
        <time>2020-06-21T16:38:10.000Z</time>
      </trkpt>
      <trkpt lat="48.373811" lon="9.140720">
        <ele>763.877337</ele>
        <time>2020-06-21T16:38:13.000Z</time>
      </trkpt>
      <trkpt lat="48.373887" lon="9.141037">
        <ele>764.894653</ele>
        <time>2020-06-21T16:38:17.000Z</time>
      </trkpt>
      <trkpt lat="48.373907" lon="9.141111">
        <ele>765.135811</ele>
        <time>2020-06-21T16:38:18.000Z</time>
      </trkpt>
      <trkpt lat="48.373972" lon="9.141371">
        <ele>765.974390</ele>
        <time>2020-06-21T16:38:22.000Z</time>
      </trkpt>
      <trkpt lat="48.373988" lon="9.141448">
        <ele>766.217929</ele>
        <time>2020-06-21T16:38:24.000Z</time>
      </trkpt>
      <trkpt lat="48.374011" lon="9.141534">
        <ele>766.497779</ele>
        <time>2020-06-21T16:38:27.000Z</time>
      </trkpt>
      <trkpt lat="48.374021" lon="9.141559">
        <ele>766.585870</ele>
        <time>2020-06-21T16:38:28.000Z</time>
      </trkpt>
      <trkpt lat="48.374030" lon="9.141583">
        <ele>766.669063</ele>
        <time>2020-06-21T16:38:29.000Z</time>
      </trkpt>
      <trkpt lat="48.374043" lon="9.141693">
        <ele>767.006323</ele>
        <time>2020-06-21T16:38:34.000Z</time>
      </trkpt>
      <trkpt lat="48.374050" lon="9.141717">
        <ele>767.085445</ele>
        <time>2020-06-21T16:38:36.000Z</time>
      </trkpt>
      <trkpt lat="48.374055" lon="9.141723">
        <ele>767.114502</ele>
        <time>2020-06-21T16:38:37.000Z</time>
      </trkpt>
      <trkpt lat="48.374065" lon="9.141747">
        <ele>767.200021</ele>
        <time>2020-06-21T16:38:40.000Z</time>
      </trkpt>
      <trkpt lat="48.374063" lon="9.141756">
        <ele>767.228668</ele>
        <time>2020-06-21T16:38:41.000Z</time>
      </trkpt>
      <trkpt lat="48.374059" lon="9.141780">
        <ele>767.303360</ele>
        <time>2020-06-21T16:38:43.000Z</time>
      </trkpt>
      <trkpt lat="48.374075" lon="9.141799">
        <ele>767.395966</ele>
        <time>2020-06-21T16:38:46.000Z</time>
      </trkpt>
      <trkpt lat="48.374083" lon="9.141807">
        <ele>767.439610</ele>
        <time>2020-06-21T16:38:47.000Z</time>
      </trkpt>
      <trkpt lat="48.374088" lon="9.141816">
        <ele>767.475026</ele>
        <time>2020-06-21T16:38:48.000Z</time>
      </trkpt>
      <trkpt lat="48.374092" lon="9.141824">
        <ele>767.505251</ele>
        <time>2020-06-21T16:38:49.000Z</time>
      </trkpt>
      <trkpt lat="48.374093" lon="9.141829">
        <ele>767.521013</ele>
        <time>2020-06-21T16:38:50.000Z</time>
      </trkpt>
      <trkpt lat="48.374093" lon="9.141834">
        <ele>767.536106</ele>
        <time>2020-06-21T16:38:51.000Z</time>
      </trkpt>
      <trkpt lat="48.374094" lon="9.141839">
        <ele>767.551869</ele>
        <time>2020-06-21T16:38:53.000Z</time>
      </trkpt>
      <trkpt lat="48.374101" lon="9.141867">
        <ele>767.642177</ele>
        <time>2020-06-21T16:38:56.000Z</time>
      </trkpt>
      <trkpt lat="48.374103" lon="9.141888">
        <ele>767.706216</ele>
        <time>2020-06-21T16:38:57.000Z</time>
      </trkpt>
      <trkpt lat="48.374109" lon="9.141941">
        <ele>767.868508</ele>
        <time>2020-06-21T16:38:59.000Z</time>
      </trkpt>
      <trkpt lat="48.374115" lon="9.142011">
        <ele>768.081561</ele>
        <time>2020-06-21T16:39:01.000Z</time>
      </trkpt>
      <trkpt lat="48.374136" lon="9.142136">
        <ele>767.985405</ele>
        <time>2020-06-21T16:39:04.000Z</time>
      </trkpt>
      <trkpt lat="48.374147" lon="9.142182">
        <ele>767.786435</ele>
        <time>2020-06-21T16:39:05.000Z</time>
      </trkpt>
      <trkpt lat="48.374170" lon="9.142281">
        <ele>767.359597</ele>
        <time>2020-06-21T16:39:07.000Z</time>
      </trkpt>
      <trkpt lat="48.374214" lon="9.142485">
        <ele>766.486698</ele>
        <time>2020-06-21T16:39:11.000Z</time>
      </trkpt>
      <trkpt lat="48.374199" lon="9.142604">
        <ele>765.993754</ele>
        <time>2020-06-21T16:39:14.000Z</time>
      </trkpt>
      <trkpt lat="48.374115" lon="9.142615">
        <ele>765.477166</ele>
        <time>2020-06-21T16:39:17.000Z</time>
      </trkpt>
      <trkpt lat="48.374069" lon="9.142599">
        <ele>765.187912</ele>
        <time>2020-06-21T16:39:20.000Z</time>
      </trkpt>
      <trkpt lat="48.374061" lon="9.142596">
        <ele>765.137400</ele>
        <time>2020-06-21T16:39:21.000Z</time>
      </trkpt>
      <trkpt lat="48.374028" lon="9.142581">
        <ele>764.926203</ele>
        <time>2020-06-21T16:39:26.000Z</time>
      </trkpt>
      <trkpt lat="48.374025" lon="9.142578">
        <ele>764.904138</ele>
        <time>2020-06-21T16:39:27.000Z</time>
      </trkpt>
      <trkpt lat="48.373994" lon="9.142564">
        <ele>764.705847</ele>
        <time>2020-06-21T16:39:29.000Z</time>
      </trkpt>
      <trkpt lat="48.373964" lon="9.142551">
        <ele>764.514582</ele>
        <time>2020-06-21T16:39:30.000Z</time>
      </trkpt>
      <trkpt lat="48.373825" lon="9.142503">
        <ele>763.640849</ele>
        <time>2020-06-21T16:39:33.000Z</time>
      </trkpt>
      <trkpt lat="48.373429" lon="9.142390">
        <ele>761.171464</ele>
        <time>2020-06-21T16:39:40.000Z</time>
      </trkpt>
      <trkpt lat="48.373134" lon="9.142310">
        <ele>759.334989</ele>
        <time>2020-06-21T16:39:45.000Z</time>
      </trkpt>
      <trkpt lat="48.373074" lon="9.142295">
        <ele>758.962351</ele>
        <time>2020-06-21T16:39:46.000Z</time>
      </trkpt>
      <trkpt lat="48.373013" lon="9.142280">
        <ele>758.583667</ele>
        <time>2020-06-21T16:39:47.000Z</time>
      </trkpt>
      <trkpt lat="48.372952" lon="9.142266">
        <ele>758.205619</ele>
        <time>2020-06-21T16:39:48.000Z</time>
      </trkpt>
      <trkpt lat="48.372891" lon="9.142253">
        <ele>757.828162</ele>
        <time>2020-06-21T16:39:49.000Z</time>
      </trkpt>
      <trkpt lat="48.372767" lon="9.142225">
        <ele>757.424973</ele>
        <time>2020-06-21T16:39:51.000Z</time>
      </trkpt>
      <trkpt lat="48.372580" lon="9.142184">
        <ele>758.559894</ele>
        <time>2020-06-21T16:39:54.000Z</time>
      </trkpt>
      <trkpt lat="48.372261" lon="9.142128">
        <ele>760.488704</ele>
        <time>2020-06-21T16:39:59.000Z</time>
      </trkpt>
      <trkpt lat="48.372134" lon="9.142111">
        <ele>761.254442</ele>
        <time>2020-06-21T16:40:01.000Z</time>
      </trkpt>
      <trkpt lat="48.371823" lon="9.142053">
        <ele>763.136503</ele>
        <time>2020-06-21T16:40:06.000Z</time>
      </trkpt>
      <trkpt lat="48.371761" lon="9.142045">
        <ele>763.510223</ele>
        <time>2020-06-21T16:40:07.000Z</time>
      </trkpt>
      <trkpt lat="48.371638" lon="9.142024">
        <ele>764.253664</ele>
        <time>2020-06-21T16:40:09.000Z</time>
      </trkpt>
      <trkpt lat="48.371579" lon="9.142013">
        <ele>764.610710</ele>
        <time>2020-06-21T16:40:10.000Z</time>
      </trkpt>
      <trkpt lat="48.371517" lon="9.142002">
        <ele>764.985642</ele>
        <time>2020-06-21T16:40:11.000Z</time>
      </trkpt>
      <trkpt lat="48.371456" lon="9.141992">
        <ele>765.354158</ele>
        <time>2020-06-21T16:40:12.000Z</time>
      </trkpt>
      <trkpt lat="48.371396" lon="9.141984">
        <ele>765.715912</ele>
        <time>2020-06-21T16:40:13.000Z</time>
      </trkpt>
      <trkpt lat="48.371277" lon="9.141969">
        <ele>766.433095</ele>
        <time>2020-06-21T16:40:15.000Z</time>
      </trkpt>
      <trkpt lat="48.371217" lon="9.141961">
        <ele>766.794850</ele>
        <time>2020-06-21T16:40:16.000Z</time>
      </trkpt>
      <trkpt lat="48.371157" lon="9.141955">
        <ele>767.155988</ele>
        <time>2020-06-21T16:40:17.000Z</time>
      </trkpt>
      <trkpt lat="48.371096" lon="9.141946">
        <ele>767.524093</ele>
        <time>2020-06-21T16:40:18.000Z</time>
      </trkpt>
      <trkpt lat="48.370914" lon="9.141926">
        <ele>768.232669</ele>
        <time>2020-06-21T16:40:21.000Z</time>
      </trkpt>
      <trkpt lat="48.370793" lon="9.141912">
        <ele>768.469290</ele>
        <time>2020-06-21T16:40:23.000Z</time>
      </trkpt>
      <trkpt lat="48.370670" lon="9.141897">
        <ele>768.709900</ele>
        <time>2020-06-21T16:40:25.000Z</time>
      </trkpt>
      <trkpt lat="48.370609" lon="9.141888">
        <ele>768.829407</ele>
        <time>2020-06-21T16:40:26.000Z</time>
      </trkpt>
      <trkpt lat="48.370547" lon="9.141881">
        <ele>768.950634</ele>
        <time>2020-06-21T16:40:27.000Z</time>
      </trkpt>
      <trkpt lat="48.370486" lon="9.141873">
        <ele>769.070022</ele>
        <time>2020-06-21T16:40:28.000Z</time>
      </trkpt>
      <trkpt lat="48.370364" lon="9.141858">
        <ele>769.308689</ele>
        <time>2020-06-21T16:40:30.000Z</time>
      </trkpt>
      <trkpt lat="48.370243" lon="9.141845">
        <ele>769.545214</ele>
        <time>2020-06-21T16:40:32.000Z</time>
      </trkpt>
      <trkpt lat="48.370125" lon="9.141832">
        <ele>769.775905</ele>
        <time>2020-06-21T16:40:34.000Z</time>
      </trkpt>
      <trkpt lat="48.370006" lon="9.141818">
        <ele>770.008638</ele>
        <time>2020-06-21T16:40:36.000Z</time>
      </trkpt>
      <trkpt lat="48.369890" lon="9.141807">
        <ele>770.235262</ele>
        <time>2020-06-21T16:40:38.000Z</time>
      </trkpt>
      <trkpt lat="48.369378" lon="9.141759">
        <ele>771.235490</ele>
        <time>2020-06-21T16:40:47.000Z</time>
      </trkpt>
      <trkpt lat="48.369321" lon="9.141758">
        <ele>771.346636</ele>
        <time>2020-06-21T16:40:48.000Z</time>
      </trkpt>
      <trkpt lat="48.369264" lon="9.141757">
        <ele>771.457782</ele>
        <time>2020-06-21T16:40:49.000Z</time>
      </trkpt>
      <trkpt lat="48.369208" lon="9.141756">
        <ele>771.564848</ele>
        <time>2020-06-21T16:40:50.000Z</time>
      </trkpt>
      <trkpt lat="48.369153" lon="9.141754">
        <ele>771.655254</ele>
        <time>2020-06-21T16:40:51.000Z</time>
      </trkpt>
      <trkpt lat="48.369098" lon="9.141751">
        <ele>771.745693</ele>
        <time>2020-06-21T16:40:52.000Z</time>
      </trkpt>
      <trkpt lat="48.369042" lon="9.141746">
        <ele>771.837878</ele>
        <time>2020-06-21T16:40:53.000Z</time>
      </trkpt>
      <trkpt lat="48.368986" lon="9.141741">
        <ele>771.930063</ele>
        <time>2020-06-21T16:40:54.000Z</time>
      </trkpt>
      <trkpt lat="48.368822" lon="9.141725">
        <ele>772.200125</ele>
        <time>2020-06-21T16:40:57.000Z</time>
      </trkpt>
      <trkpt lat="48.368552" lon="9.141699">
        <ele>772.644715</ele>
        <time>2020-06-21T16:41:02.000Z</time>
      </trkpt>
      <trkpt lat="48.368446" lon="9.141691">
        <ele>772.819121</ele>
        <time>2020-06-21T16:41:04.000Z</time>
      </trkpt>
      <trkpt lat="48.368343" lon="9.141687">
        <ele>772.988434</ele>
        <time>2020-06-21T16:41:06.000Z</time>
      </trkpt>
      <trkpt lat="48.368240" lon="9.141688">
        <ele>773.157695</ele>
        <time>2020-06-21T16:41:08.000Z</time>
      </trkpt>
      <trkpt lat="48.368188" lon="9.141687">
        <ele>773.243152</ele>
        <time>2020-06-21T16:41:09.000Z</time>
      </trkpt>
      <trkpt lat="48.368032" lon="9.141691">
        <ele>773.499539</ele>
        <time>2020-06-21T16:41:12.000Z</time>
      </trkpt>
      <trkpt lat="48.367877" lon="9.141709">
        <ele>773.755003</ele>
        <time>2020-06-21T16:41:15.000Z</time>
      </trkpt>
      <trkpt lat="48.367725" lon="9.141748">
        <ele>774.008383</ele>
        <time>2020-06-21T16:41:18.000Z</time>
      </trkpt>
      <trkpt lat="48.367622" lon="9.141784">
        <ele>774.182143</ele>
        <time>2020-06-21T16:41:20.000Z</time>
      </trkpt>
      <trkpt lat="48.367469" lon="9.141841">
        <ele>774.441150</ele>
        <time>2020-06-21T16:41:23.000Z</time>
      </trkpt>
      <trkpt lat="48.367310" lon="9.141894">
        <ele>775.985019</ele>
        <time>2020-06-21T16:41:26.000Z</time>
      </trkpt>
      <trkpt lat="48.367255" lon="9.141918">
        <ele>776.680595</ele>
        <time>2020-06-21T16:41:27.000Z</time>
      </trkpt>
      <trkpt lat="48.367201" lon="9.141942">
        <ele>777.364512</ele>
        <time>2020-06-21T16:41:28.000Z</time>
      </trkpt>
      <trkpt lat="48.367098" lon="9.141988">
        <ele>778.669531</ele>
        <time>2020-06-21T16:41:30.000Z</time>
      </trkpt>
      <trkpt lat="48.366992" lon="9.142042">
        <ele>780.028824</ele>
        <time>2020-06-21T16:41:32.000Z</time>
      </trkpt>
      <trkpt lat="48.366940" lon="9.142071">
        <ele>780.702413</ele>
        <time>2020-06-21T16:41:33.000Z</time>
      </trkpt>
      <trkpt lat="48.366885" lon="9.142100">
        <ele>781.410285</ele>
        <time>2020-06-21T16:41:34.000Z</time>
      </trkpt>
      <trkpt lat="48.366829" lon="9.142131">
        <ele>782.135043</ele>
        <time>2020-06-21T16:41:35.000Z</time>
      </trkpt>
      <trkpt lat="48.366721" lon="9.142195">
        <ele>783.544891</ele>
        <time>2020-06-21T16:41:37.000Z</time>
      </trkpt>
      <trkpt lat="48.366562" lon="9.142294">
        <ele>785.634934</ele>
        <time>2020-06-21T16:41:40.000Z</time>
      </trkpt>
      <trkpt lat="48.366456" lon="9.142361">
        <ele>787.031401</ele>
        <time>2020-06-21T16:41:42.000Z</time>
      </trkpt>
      <trkpt lat="48.366405" lon="9.142392">
        <ele>787.699488</ele>
        <time>2020-06-21T16:41:43.000Z</time>
      </trkpt>
      <trkpt lat="48.366353" lon="9.142423">
        <ele>788.378854</ele>
        <time>2020-06-21T16:41:44.000Z</time>
      </trkpt>
      <trkpt lat="48.366244" lon="9.142493">
        <ele>789.818317</ele>
        <time>2020-06-21T16:41:46.000Z</time>
      </trkpt>
      <trkpt lat="48.366135" lon="9.142568">
        <ele>791.274087</ele>
        <time>2020-06-21T16:41:48.000Z</time>
      </trkpt>
      <trkpt lat="48.366016" lon="9.142648">
        <ele>792.857166</ele>
        <time>2020-06-21T16:41:50.000Z</time>
      </trkpt>
      <trkpt lat="48.365899" lon="9.142727">
        <ele>794.414774</ele>
        <time>2020-06-21T16:41:52.000Z</time>
      </trkpt>
      <trkpt lat="48.365782" lon="9.142808">
        <ele>795.979059</ele>
        <time>2020-06-21T16:41:54.000Z</time>
      </trkpt>
      <trkpt lat="48.365603" lon="9.142929">
        <ele>797.827447</ele>
        <time>2020-06-21T16:41:57.000Z</time>
      </trkpt>
      <trkpt lat="48.365484" lon="9.143009">
        <ele>798.988229</ele>
        <time>2020-06-21T16:41:59.000Z</time>
      </trkpt>
      <trkpt lat="48.365421" lon="9.143049">
        <ele>799.597216</ele>
        <time>2020-06-21T16:42:00.000Z</time>
      </trkpt>
      <trkpt lat="48.365360" lon="9.143087">
        <ele>800.185204</ele>
        <time>2020-06-21T16:42:01.000Z</time>
      </trkpt>
      <trkpt lat="48.365238" lon="9.143164">
        <ele>801.363455</ele>
        <time>2020-06-21T16:42:03.000Z</time>
      </trkpt>
      <trkpt lat="48.364981" lon="9.143335">
        <ele>803.866098</ele>
        <time>2020-06-21T16:42:07.000Z</time>
      </trkpt>
      <trkpt lat="48.364781" lon="9.143471">
        <ele>805.820745</ele>
        <time>2020-06-21T16:42:10.000Z</time>
      </trkpt>
      <trkpt lat="48.364713" lon="9.143516">
        <ele>806.482338</ele>
        <time>2020-06-21T16:42:11.000Z</time>
      </trkpt>
      <trkpt lat="48.364439" lon="9.143691">
        <ele>809.133332</ele>
        <time>2020-06-21T16:42:15.000Z</time>
      </trkpt>
      <trkpt lat="48.364234" lon="9.143827">
        <ele>811.128651</ele>
        <time>2020-06-21T16:42:18.000Z</time>
      </trkpt>
      <trkpt lat="48.364165" lon="9.143870">
        <ele>811.793791</ele>
        <time>2020-06-21T16:42:19.000Z</time>
      </trkpt>
      <trkpt lat="48.363960" lon="9.144000">
        <ele>813.256387</ele>
        <time>2020-06-21T16:42:22.000Z</time>
      </trkpt>
      <trkpt lat="48.363822" lon="9.144096">
        <ele>814.108344</ele>
        <time>2020-06-21T16:42:24.000Z</time>
      </trkpt>
      <trkpt lat="48.363684" lon="9.144184">
        <ele>814.948241</ele>
        <time>2020-06-21T16:42:26.000Z</time>
      </trkpt>
      <trkpt lat="48.363552" lon="9.144260">
        <ele>815.740243</ele>
        <time>2020-06-21T16:42:28.000Z</time>
      </trkpt>
      <trkpt lat="48.363420" lon="9.144336">
        <ele>816.532246</ele>
        <time>2020-06-21T16:42:30.000Z</time>
      </trkpt>
      <trkpt lat="48.363286" lon="9.144411">
        <ele>817.333422</ele>
        <time>2020-06-21T16:42:32.000Z</time>
      </trkpt>
      <trkpt lat="48.362958" lon="9.144558">
        <ele>819.251289</ele>
        <time>2020-06-21T16:42:37.000Z</time>
      </trkpt>
      <trkpt lat="48.362900" lon="9.144539">
        <ele>819.583931</ele>
        <time>2020-06-21T16:42:38.000Z</time>
      </trkpt>
      <trkpt lat="48.362854" lon="9.144494">
        <ele>819.891381</ele>
        <time>2020-06-21T16:42:39.000Z</time>
      </trkpt>
      <trkpt lat="48.362818" lon="9.144430">
        <ele>820.203606</ele>
        <time>2020-06-21T16:42:40.000Z</time>
      </trkpt>
      <trkpt lat="48.362785" lon="9.144367">
        <ele>820.502310</ele>
        <time>2020-06-21T16:42:41.000Z</time>
      </trkpt>
      <trkpt lat="48.362723" lon="9.144140">
        <ele>821.416141</ele>
        <time>2020-06-21T16:42:44.000Z</time>
      </trkpt>
      <trkpt lat="48.362668" lon="9.143898">
        <ele>822.368453</ele>
        <time>2020-06-21T16:42:47.000Z</time>
      </trkpt>
      <trkpt lat="48.362647" lon="9.143831">
        <ele>822.628013</ele>
        <time>2020-06-21T16:42:48.000Z</time>
      </trkpt>
      <trkpt lat="48.362587" lon="9.143720">
        <ele>823.114806</ele>
        <time>2020-06-21T16:42:50.000Z</time>
      </trkpt>
      <trkpt lat="48.362559" lon="9.143669">
        <ele>823.339872</ele>
        <time>2020-06-21T16:42:51.000Z</time>
      </trkpt>
      <trkpt lat="48.362502" lon="9.143610">
        <ele>823.694076</ele>
        <time>2020-06-21T16:42:53.000Z</time>
      </trkpt>
      <trkpt lat="48.362476" lon="9.143614">
        <ele>823.827894</ele>
        <time>2020-06-21T16:42:54.000Z</time>
      </trkpt>
      <trkpt lat="48.362459" lon="9.143645">
        <ele>823.964635</ele>
        <time>2020-06-21T16:42:55.000Z</time>
      </trkpt>
      <trkpt lat="48.362459" lon="9.143683">
        <ele>824.093907</ele>
        <time>2020-06-21T16:42:56.000Z</time>
      </trkpt>
      <trkpt lat="48.362479" lon="9.143702">
        <ele>824.215003</ele>
        <time>2020-06-21T16:42:57.000Z</time>
      </trkpt>
      <trkpt lat="48.362504" lon="9.143694">
        <ele>824.345868</ele>
        <time>2020-06-21T16:42:58.000Z</time>
      </trkpt>
      <trkpt lat="48.362516" lon="9.143660">
        <ele>824.476839</ele>
        <time>2020-06-21T16:42:59.000Z</time>
      </trkpt>
      <trkpt lat="48.362508" lon="9.143625">
        <ele>824.602755</ele>
        <time>2020-06-21T16:43:00.000Z</time>
      </trkpt>
      <trkpt lat="48.362490" lon="9.143611">
        <ele>824.706496</ele>
        <time>2020-06-21T16:43:01.000Z</time>
      </trkpt>
      <trkpt lat="48.362470" lon="9.143623">
        <ele>824.816736</ele>
        <time>2020-06-21T16:43:02.000Z</time>
      </trkpt>
      <trkpt lat="48.362460" lon="9.143652">
        <ele>824.927887</ele>
        <time>2020-06-21T16:43:03.000Z</time>
      </trkpt>
      <trkpt lat="48.362464" lon="9.143685">
        <ele>825.042003</ele>
        <time>2020-06-21T16:43:04.000Z</time>
      </trkpt>
      <trkpt lat="48.362486" lon="9.143695">
        <ele>825.159671</ele>
        <time>2020-06-21T16:43:05.000Z</time>
      </trkpt>
      <trkpt lat="48.362510" lon="9.143683">
        <ele>825.289158</ele>
        <time>2020-06-21T16:43:06.000Z</time>
      </trkpt>
      <trkpt lat="48.362506" lon="9.143602">
        <ele>825.565473</ele>
        <time>2020-06-21T16:43:09.000Z</time>
      </trkpt>
      <trkpt lat="48.362465" lon="9.143682">
        <ele>825.909182</ele>
        <time>2020-06-21T16:43:12.000Z</time>
      </trkpt>
      <trkpt lat="48.362475" lon="9.143710">
        <ele>826.017325</ele>
        <time>2020-06-21T16:43:13.000Z</time>
      </trkpt>
      <trkpt lat="48.362535" lon="9.143686">
        <ele>826.335198</ele>
        <time>2020-06-21T16:43:15.000Z</time>
      </trkpt>
      <trkpt lat="48.362545" lon="9.143649">
        <ele>826.471084</ele>
        <time>2020-06-21T16:43:16.000Z</time>
      </trkpt>
      <trkpt lat="48.362533" lon="9.143610">
        <ele>826.617295</ele>
        <time>2020-06-21T16:43:17.000Z</time>
      </trkpt>
      <trkpt lat="48.362511" lon="9.143592">
        <ele>826.745506</ele>
        <time>2020-06-21T16:43:18.000Z</time>
      </trkpt>
      <trkpt lat="48.362469" lon="9.143641">
        <ele>827.017594</ele>
        <time>2020-06-21T16:43:20.000Z</time>
      </trkpt>
      <trkpt lat="48.362469" lon="9.143677">
        <ele>827.140062</ele>
        <time>2020-06-21T16:43:21.000Z</time>
      </trkpt>
      <trkpt lat="48.362519" lon="9.143643">
        <ele>827.420986</ele>
        <time>2020-06-21T16:43:24.000Z</time>
      </trkpt>
      <trkpt lat="48.362457" lon="9.143626">
        <ele>827.743660</ele>
        <time>2020-06-21T16:43:27.000Z</time>
      </trkpt>
      <trkpt lat="48.362449" lon="9.143694">
        <ele>827.978589</ele>
        <time>2020-06-21T16:43:29.000Z</time>
      </trkpt>
      <trkpt lat="48.362485" lon="9.143698">
        <ele>828.163416</ele>
        <time>2020-06-21T16:43:30.000Z</time>
      </trkpt>
      <trkpt lat="48.362512" lon="9.143682">
        <ele>828.311989</ele>
        <time>2020-06-21T16:43:31.000Z</time>
      </trkpt>
      <trkpt lat="48.362527" lon="9.143647">
        <ele>828.453677</ele>
        <time>2020-06-21T16:43:32.000Z</time>
      </trkpt>
      <trkpt lat="48.362523" lon="9.143612">
        <ele>828.574493</ele>
        <time>2020-06-21T16:43:33.000Z</time>
      </trkpt>
      <trkpt lat="48.362481" lon="9.143626">
        <ele>828.794750</ele>
        <time>2020-06-21T16:43:35.000Z</time>
      </trkpt>
      <trkpt lat="48.362473" lon="9.143666">
        <ele>828.936857</ele>
        <time>2020-06-21T16:43:36.000Z</time>
      </trkpt>
      <trkpt lat="48.362533" lon="9.143696">
        <ele>829.260575</ele>
        <time>2020-06-21T16:43:39.000Z</time>
      </trkpt>
      <trkpt lat="48.362511" lon="9.143610">
        <ele>829.574075</ele>
        <time>2020-06-21T16:43:42.000Z</time>
      </trkpt>
      <trkpt lat="48.362474" lon="9.143677">
        <ele>829.870454</ele>
        <time>2020-06-21T16:43:44.000Z</time>
      </trkpt>
      <trkpt lat="48.362459" lon="9.143734">
        <ele>830.079019</ele>
        <time>2020-06-21T16:43:45.000Z</time>
      </trkpt>
      <trkpt lat="48.362443" lon="9.143795">
        <ele>830.302121</ele>
        <time>2020-06-21T16:43:46.000Z</time>
      </trkpt>
      <trkpt lat="48.362327" lon="9.144207">
        <ele>831.573004</ele>
        <time>2020-06-21T16:43:52.000Z</time>
      </trkpt>
      <trkpt lat="48.362300" lon="9.144283">
        <ele>831.403287</ele>
        <time>2020-06-21T16:43:53.000Z</time>
      </trkpt>
      <trkpt lat="48.362225" lon="9.144388">
        <ele>831.099690</ele>
        <time>2020-06-21T16:43:55.000Z</time>
      </trkpt>
      <trkpt lat="48.362175" lon="9.144411">
        <ele>830.944727</ele>
        <time>2020-06-21T16:43:56.000Z</time>
      </trkpt>
      <trkpt lat="48.362122" lon="9.144416">
        <ele>830.787331</ele>
        <time>2020-06-21T16:43:57.000Z</time>
      </trkpt>
      <trkpt lat="48.362030" lon="9.144349">
        <ele>830.484405</ele>
        <time>2020-06-21T16:43:59.000Z</time>
      </trkpt>
      <trkpt lat="48.361993" lon="9.144206">
        <ele>830.182196</ele>
        <time>2020-06-21T16:44:01.000Z</time>
      </trkpt>
      <trkpt lat="48.361998" lon="9.144125">
        <ele>830.021996</ele>
        <time>2020-06-21T16:44:02.000Z</time>
      </trkpt>
      <trkpt lat="48.362008" lon="9.143886">
        <ele>829.550402</ele>
        <time>2020-06-21T16:44:06.000Z</time>
      </trkpt>
      <trkpt lat="48.362010" lon="9.143809">
        <ele>829.398650</ele>
        <time>2020-06-21T16:44:08.000Z</time>
      </trkpt>
      <trkpt lat="48.362018" lon="9.143765">
        <ele>829.308816</ele>
        <time>2020-06-21T16:44:10.000Z</time>
      </trkpt>
      <trkpt lat="48.362028" lon="9.143722">
        <ele>829.219099</ele>
        <time>2020-06-21T16:44:13.000Z</time>
      </trkpt>
      <trkpt lat="48.362028" lon="9.143721">
        <ele>829.217129</ele>
        <time>2020-06-21T16:44:17.000Z</time>
      </trkpt>
      <trkpt lat="48.362025" lon="9.143720">
        <ele>829.208022</ele>
        <time>2020-06-21T16:44:18.000Z</time>
      </trkpt>
      <trkpt lat="48.362021" lon="9.143719">
        <ele>829.196004</ele>
        <time>2020-06-21T16:44:23.000Z</time>
      </trkpt>
      <trkpt lat="48.362021" lon="9.143719">
        <ele>829.196004</ele>
        <time>2020-06-21T16:44:24.000Z</time>
      </trkpt>
      <trkpt lat="48.362021" lon="9.143716">
        <ele>829.190096</ele>
        <time>2020-06-21T16:44:25.000Z</time>
      </trkpt>
      <trkpt lat="48.362027" lon="9.143695">
        <ele>829.145079</ele>
        <time>2020-06-21T16:44:27.000Z</time>
      </trkpt>
      <trkpt lat="48.362036" lon="9.143675">
        <ele>829.097510</ele>
        <time>2020-06-21T16:44:28.000Z</time>
      </trkpt>
      <trkpt lat="48.362076" lon="9.143604">
        <ele>828.914192</ele>
        <time>2020-06-21T16:44:31.000Z</time>
      </trkpt>
      <trkpt lat="48.362108" lon="9.143536">
        <ele>828.750095</ele>
        <time>2020-06-21T16:44:33.000Z</time>
      </trkpt>
      <trkpt lat="48.362126" lon="9.143448">
        <ele>828.568771</ele>
        <time>2020-06-21T16:44:35.000Z</time>
      </trkpt>
      <trkpt lat="48.362154" lon="9.143292">
        <ele>828.250549</ele>
        <time>2020-06-21T16:44:38.000Z</time>
      </trkpt>
      <trkpt lat="48.362166" lon="9.143236">
        <ele>828.134675</ele>
        <time>2020-06-21T16:44:39.000Z</time>
      </trkpt>
      <trkpt lat="48.362253" lon="9.142931">
        <ele>827.481030</ele>
        <time>2020-06-21T16:44:44.000Z</time>
      </trkpt>
      <trkpt lat="48.362307" lon="9.142741">
        <ele>827.074071</ele>
        <time>2020-06-21T16:44:47.000Z</time>
      </trkpt>
      <trkpt lat="48.362339" lon="9.142615">
        <ele>826.808432</ele>
        <time>2020-06-21T16:44:49.000Z</time>
      </trkpt>
      <trkpt lat="48.362377" lon="9.142501">
        <ele>826.557265</ele>
        <time>2020-06-21T16:44:51.000Z</time>
      </trkpt>
      <trkpt lat="48.362440" lon="9.142427">
        <ele>826.345337</ele>
        <time>2020-06-21T16:44:53.000Z</time>
      </trkpt>
      <trkpt lat="48.362479" lon="9.142417">
        <ele>826.441261</ele>
        <time>2020-06-21T16:44:54.000Z</time>
      </trkpt>
      <trkpt lat="48.362554" lon="9.142459">
        <ele>826.635290</ele>
        <time>2020-06-21T16:44:56.000Z</time>
      </trkpt>
      <trkpt lat="48.362607" lon="9.142555">
        <ele>826.836366</ele>
        <time>2020-06-21T16:44:58.000Z</time>
      </trkpt>
      <trkpt lat="48.362641" lon="9.142672">
        <ele>827.042090</ele>
        <time>2020-06-21T16:45:00.000Z</time>
      </trkpt>
      <trkpt lat="48.362672" lon="9.142867">
        <ele>827.365096</ele>
        <time>2020-06-21T16:45:03.000Z</time>
      </trkpt>
      <trkpt lat="48.362676" lon="9.142997">
        <ele>827.574747</ele>
        <time>2020-06-21T16:45:05.000Z</time>
      </trkpt>
      <trkpt lat="48.362672" lon="9.143062">
        <ele>827.679909</ele>
        <time>2020-06-21T16:45:06.000Z</time>
      </trkpt>
      <trkpt lat="48.362662" lon="9.143129">
        <ele>827.790534</ele>
        <time>2020-06-21T16:45:07.000Z</time>
      </trkpt>
      <trkpt lat="48.362601" lon="9.143449">
        <ele>828.326843</ele>
        <time>2020-06-21T16:45:12.000Z</time>
      </trkpt>
      <trkpt lat="48.362592" lon="9.143510">
        <ele>828.427506</ele>
        <time>2020-06-21T16:45:13.000Z</time>
      </trkpt>
      <trkpt lat="48.362590" lon="9.143571">
        <ele>828.525895</ele>
        <time>2020-06-21T16:45:14.000Z</time>
      </trkpt>
      <trkpt lat="48.362608" lon="9.143688">
        <ele>828.719366</ele>
        <time>2020-06-21T16:45:16.000Z</time>
      </trkpt>
      <trkpt lat="48.362656" lon="9.143862">
        <ele>829.022876</ele>
        <time>2020-06-21T16:45:19.000Z</time>
      </trkpt>
      <trkpt lat="48.362701" lon="9.144040">
        <ele>829.329686</ele>
        <time>2020-06-21T16:45:22.000Z</time>
      </trkpt>
      <trkpt lat="48.362732" lon="9.144156">
        <ele>829.531109</ele>
        <time>2020-06-21T16:45:24.000Z</time>
      </trkpt>
      <trkpt lat="48.362762" lon="9.144274">
        <ele>829.734645</ele>
        <time>2020-06-21T16:45:26.000Z</time>
      </trkpt>
      <trkpt lat="48.362778" lon="9.144331">
        <ele>829.834329</ele>
        <time>2020-06-21T16:45:27.000Z</time>
      </trkpt>
      <trkpt lat="48.362796" lon="9.144388">
        <ele>829.935998</ele>
        <time>2020-06-21T16:45:28.000Z</time>
      </trkpt>
      <trkpt lat="48.362821" lon="9.144623">
        <ele>830.319397</ele>
        <time>2020-06-21T16:45:32.000Z</time>
      </trkpt>
      <trkpt lat="48.362777" lon="9.144724">
        <ele>830.513962</ele>
        <time>2020-06-21T16:45:34.000Z</time>
      </trkpt>
      <trkpt lat="48.362739" lon="9.144765">
        <ele>830.627328</ele>
        <time>2020-06-21T16:45:35.000Z</time>
      </trkpt>
      <trkpt lat="48.362695" lon="9.144800">
        <ele>830.673966</ele>
        <time>2020-06-21T16:45:36.000Z</time>
      </trkpt>
      <trkpt lat="48.362647" lon="9.144833">
        <ele>830.622488</ele>
        <time>2020-06-21T16:45:37.000Z</time>
      </trkpt>
      <trkpt lat="48.362597" lon="9.144865">
        <ele>830.569486</ele>
        <time>2020-06-21T16:45:38.000Z</time>
      </trkpt>
      <trkpt lat="48.362544" lon="9.144898">
        <ele>830.513534</ele>
        <time>2020-06-21T16:45:39.000Z</time>
      </trkpt>
      <trkpt lat="48.362490" lon="9.144932">
        <ele>830.456433</ele>
        <time>2020-06-21T16:45:40.000Z</time>
      </trkpt>
      <trkpt lat="48.362376" lon="9.145013">
        <ele>830.333456</ele>
        <time>2020-06-21T16:45:42.000Z</time>
      </trkpt>
      <trkpt lat="48.362014" lon="9.145267">
        <ele>829.943833</ele>
        <time>2020-06-21T16:45:48.000Z</time>
      </trkpt>
      <trkpt lat="48.361504" lon="9.145636">
        <ele>829.391822</ele>
        <time>2020-06-21T16:45:56.000Z</time>
      </trkpt>
      <trkpt lat="48.361441" lon="9.145685">
        <ele>829.322644</ele>
        <time>2020-06-21T16:45:57.000Z</time>
      </trkpt>
      <trkpt lat="48.361309" lon="9.145762">
        <ele>829.184544</ele>
        <time>2020-06-21T16:45:59.000Z</time>
      </trkpt>
      <trkpt lat="48.361182" lon="9.145735">
        <ele>829.059424</ele>
        <time>2020-06-21T16:46:01.000Z</time>
      </trkpt>
      <trkpt lat="48.361130" lon="9.145566">
        <ele>828.920378</ele>
        <time>2020-06-21T16:46:03.000Z</time>
      </trkpt>
      <trkpt lat="48.361143" lon="9.145467">
        <ele>828.225801</ele>
        <time>2020-06-21T16:46:04.000Z</time>
      </trkpt>
      <trkpt lat="48.361164" lon="9.145374">
        <ele>827.549746</ele>
        <time>2020-06-21T16:46:05.000Z</time>
      </trkpt>
      <trkpt lat="48.361276" lon="9.144905">
        <ele>824.119553</ele>
        <time>2020-06-21T16:46:10.000Z</time>
      </trkpt>
      <trkpt lat="48.361296" lon="9.144808">
        <ele>823.420516</ele>
        <time>2020-06-21T16:46:11.000Z</time>
      </trkpt>
      <trkpt lat="48.361315" lon="9.144711">
        <ele>822.724480</ele>
        <time>2020-06-21T16:46:12.000Z</time>
      </trkpt>
      <trkpt lat="48.361333" lon="9.144615">
        <ele>822.037928</ele>
        <time>2020-06-21T16:46:13.000Z</time>
      </trkpt>
      <trkpt lat="48.361374" lon="9.144428">
        <ele>820.682586</ele>
        <time>2020-06-21T16:46:15.000Z</time>
      </trkpt>
      <trkpt lat="48.361418" lon="9.144238">
        <ele>819.297706</ele>
        <time>2020-06-21T16:46:17.000Z</time>
      </trkpt>
      <trkpt lat="48.361440" lon="9.144143">
        <ele>818.605267</ele>
        <time>2020-06-21T16:46:18.000Z</time>
      </trkpt>
      <trkpt lat="48.361463" lon="9.144047">
        <ele>817.902879</ele>
        <time>2020-06-21T16:46:19.000Z</time>
      </trkpt>
      <trkpt lat="48.361507" lon="9.143855">
        <ele>816.504995</ele>
        <time>2020-06-21T16:46:21.000Z</time>
      </trkpt>
      <trkpt lat="48.361528" lon="9.143757">
        <ele>815.796275</ele>
        <time>2020-06-21T16:46:22.000Z</time>
      </trkpt>
      <trkpt lat="48.361549" lon="9.143660">
        <ele>815.094101</ele>
        <time>2020-06-21T16:46:23.000Z</time>
      </trkpt>
      <trkpt lat="48.361569" lon="9.143562">
        <ele>814.388492</ele>
        <time>2020-06-21T16:46:24.000Z</time>
      </trkpt>
      <trkpt lat="48.361590" lon="9.143463">
        <ele>813.673218</ele>
        <time>2020-06-21T16:46:25.000Z</time>
      </trkpt>
      <trkpt lat="48.361633" lon="9.143266">
        <ele>812.246028</ele>
        <time>2020-06-21T16:46:27.000Z</time>
      </trkpt>
      <trkpt lat="48.361670" lon="9.143058">
        <ele>810.764001</ele>
        <time>2020-06-21T16:46:29.000Z</time>
      </trkpt>
      <trkpt lat="48.361706" lon="9.142848">
        <ele>810.259826</ele>
        <time>2020-06-21T16:46:31.000Z</time>
      </trkpt>
      <trkpt lat="48.361749" lon="9.142650">
        <ele>810.192353</ele>
        <time>2020-06-21T16:46:33.000Z</time>
      </trkpt>
      <trkpt lat="48.361852" lon="9.142282">
        <ele>810.063008</ele>
        <time>2020-06-21T16:46:37.000Z</time>
      </trkpt>
      <trkpt lat="48.361912" lon="9.142107">
        <ele>809.999222</ele>
        <time>2020-06-21T16:46:39.000Z</time>
      </trkpt>
      <trkpt lat="48.362089" lon="9.141715">
        <ele>809.845703</ele>
        <time>2020-06-21T16:46:44.000Z</time>
      </trkpt>
      <trkpt lat="48.362291" lon="9.141382">
        <ele>809.699649</ele>
        <time>2020-06-21T16:46:49.000Z</time>
      </trkpt>
      <trkpt lat="48.362333" lon="9.141323">
        <ele>809.671641</ele>
        <time>2020-06-21T16:46:50.000Z</time>
      </trkpt>
      <trkpt lat="48.362376" lon="9.141266">
        <ele>809.643707</ele>
        <time>2020-06-21T16:46:51.000Z</time>
      </trkpt>
      <trkpt lat="48.362463" lon="9.141156">
        <ele>809.588314</ele>
        <time>2020-06-21T16:46:53.000Z</time>
      </trkpt>
      <trkpt lat="48.362506" lon="9.141105">
        <ele>809.561625</ele>
        <time>2020-06-21T16:46:54.000Z</time>
      </trkpt>
      <trkpt lat="48.362639" lon="9.140964">
        <ele>809.482316</ele>
        <time>2020-06-21T16:46:57.000Z</time>
      </trkpt>
      <trkpt lat="48.362684" lon="9.140920">
        <ele>809.456156</ele>
        <time>2020-06-21T16:46:58.000Z</time>
      </trkpt>
      <trkpt lat="48.362729" lon="9.140879">
        <ele>809.441063</ele>
        <time>2020-06-21T16:46:59.000Z</time>
      </trkpt>
      <trkpt lat="48.362868" lon="9.140763">
        <ele>810.001028</ele>
        <time>2020-06-21T16:47:02.000Z</time>
      </trkpt>
      <trkpt lat="48.363105" lon="9.140605">
        <ele>810.914268</ele>
        <time>2020-06-21T16:47:07.000Z</time>
      </trkpt>
      <trkpt lat="48.363150" lon="9.140573">
        <ele>811.089617</ele>
        <time>2020-06-21T16:47:08.000Z</time>
      </trkpt>
      <trkpt lat="48.363244" lon="9.140522">
        <ele>811.441656</ele>
        <time>2020-06-21T16:47:10.000Z</time>
      </trkpt>
      <trkpt lat="48.363430" lon="9.140424">
        <ele>812.135961</ele>
        <time>2020-06-21T16:47:14.000Z</time>
      </trkpt>
      <trkpt lat="48.363477" lon="9.140397">
        <ele>812.313202</ele>
        <time>2020-06-21T16:47:15.000Z</time>
      </trkpt>
      <trkpt lat="48.363525" lon="9.140373">
        <ele>812.491402</ele>
        <time>2020-06-21T16:47:16.000Z</time>
      </trkpt>
      <trkpt lat="48.363571" lon="9.140348">
        <ele>812.663711</ele>
        <time>2020-06-21T16:47:17.000Z</time>
      </trkpt>
      <trkpt lat="48.363616" lon="9.140322">
        <ele>812.833534</ele>
        <time>2020-06-21T16:47:18.000Z</time>
      </trkpt>
      <trkpt lat="48.363660" lon="9.140295">
        <ele>813.000943</ele>
        <time>2020-06-21T16:47:19.000Z</time>
      </trkpt>
      <trkpt lat="48.363704" lon="9.140268">
        <ele>813.168352</ele>
        <time>2020-06-21T16:47:20.000Z</time>
      </trkpt>
      <trkpt lat="48.363931" lon="9.140118">
        <ele>814.041797</ele>
        <time>2020-06-21T16:47:25.000Z</time>
      </trkpt>
      <trkpt lat="48.363974" lon="9.140087">
        <ele>814.209776</ele>
        <time>2020-06-21T16:47:26.000Z</time>
      </trkpt>
      <trkpt lat="48.364019" lon="9.140055">
        <ele>814.385124</ele>
        <time>2020-06-21T16:47:27.000Z</time>
      </trkpt>
      <trkpt lat="48.364063" lon="9.140024">
        <ele>814.556287</ele>
        <time>2020-06-21T16:47:28.000Z</time>
      </trkpt>
      <trkpt lat="48.364151" lon="9.139962">
        <ele>814.898613</ele>
        <time>2020-06-21T16:47:30.000Z</time>
      </trkpt>
      <trkpt lat="48.364321" lon="9.139828">
        <ele>815.574717</ele>
        <time>2020-06-21T16:47:34.000Z</time>
      </trkpt>
      <trkpt lat="48.364404" lon="9.139747">
        <ele>816.046715</ele>
        <time>2020-06-21T16:47:36.000Z</time>
      </trkpt>
      <trkpt lat="48.364484" lon="9.139665">
        <ele>816.660300</ele>
        <time>2020-06-21T16:47:38.000Z</time>
      </trkpt>
      <trkpt lat="48.364566" lon="9.139577">
        <ele>817.298738</ele>
        <time>2020-06-21T16:47:40.000Z</time>
      </trkpt>
      <trkpt lat="48.364720" lon="9.139388">
        <ele>818.558414</ele>
        <time>2020-06-21T16:47:44.000Z</time>
      </trkpt>
      <trkpt lat="48.364793" lon="9.139294">
        <ele>819.167438</ele>
        <time>2020-06-21T16:47:46.000Z</time>
      </trkpt>
      <trkpt lat="48.364827" lon="9.139246">
        <ele>819.462953</ele>
        <time>2020-06-21T16:47:47.000Z</time>
      </trkpt>
      <trkpt lat="48.364991" lon="9.138991">
        <ele>820.957748</ele>
        <time>2020-06-21T16:47:52.000Z</time>
      </trkpt>
      <trkpt lat="48.365055" lon="9.138887">
        <ele>821.554807</ele>
        <time>2020-06-21T16:47:54.000Z</time>
      </trkpt>
      <trkpt lat="48.365117" lon="9.138779">
        <ele>822.155969</ele>
        <time>2020-06-21T16:47:56.000Z</time>
      </trkpt>
      <trkpt lat="48.365206" lon="9.138612">
        <ele>823.057668</ele>
        <time>2020-06-21T16:47:59.000Z</time>
      </trkpt>
      <trkpt lat="48.365263" lon="9.138499">
        <ele>823.655233</ele>
        <time>2020-06-21T16:48:01.000Z</time>
      </trkpt>
      <trkpt lat="48.365319" lon="9.138389">
        <ele>824.238906</ele>
        <time>2020-06-21T16:48:03.000Z</time>
      </trkpt>
      <trkpt lat="48.365375" lon="9.138278">
        <ele>824.825927</ele>
        <time>2020-06-21T16:48:05.000Z</time>
      </trkpt>
      <trkpt lat="48.365507" lon="9.137983">
        <ele>826.323919</ele>
        <time>2020-06-21T16:48:10.000Z</time>
      </trkpt>
      <trkpt lat="48.365534" lon="9.137923">
        <ele>826.629137</ele>
        <time>2020-06-21T16:48:11.000Z</time>
      </trkpt>
      <trkpt lat="48.365581" lon="9.137799">
        <ele>827.179472</ele>
        <time>2020-06-21T16:48:13.000Z</time>
      </trkpt>
      <trkpt lat="48.365605" lon="9.137739">
        <ele>827.221022</ele>
        <time>2020-06-21T16:48:14.000Z</time>
      </trkpt>
      <trkpt lat="48.365628" lon="9.137680">
        <ele>827.261605</ele>
        <time>2020-06-21T16:48:15.000Z</time>
      </trkpt>
      <trkpt lat="48.365652" lon="9.137621">
        <ele>827.302648</ele>
        <time>2020-06-21T16:48:16.000Z</time>
      </trkpt>
      <trkpt lat="48.365676" lon="9.137563">
        <ele>827.343186</ele>
        <time>2020-06-21T16:48:17.000Z</time>
      </trkpt>
      <trkpt lat="48.365700" lon="9.137506">
        <ele>827.383221</ele>
        <time>2020-06-21T16:48:18.000Z</time>
      </trkpt>
      <trkpt lat="48.365749" lon="9.137394">
        <ele>827.462780</ele>
        <time>2020-06-21T16:48:20.000Z</time>
      </trkpt>
      <trkpt lat="48.365858" lon="9.137161">
        <ele>827.631841</ele>
        <time>2020-06-21T16:48:24.000Z</time>
      </trkpt>
      <trkpt lat="48.365953" lon="9.136919">
        <ele>827.798601</ele>
        <time>2020-06-21T16:48:28.000Z</time>
      </trkpt>
      <trkpt lat="48.365974" lon="9.136860">
        <ele>827.838310</ele>
        <time>2020-06-21T16:48:29.000Z</time>
      </trkpt>
      <trkpt lat="48.365996" lon="9.136800">
        <ele>827.878967</ele>
        <time>2020-06-21T16:48:30.000Z</time>
      </trkpt>
      <trkpt lat="48.366020" lon="9.136740">
        <ele>827.920516</ele>
        <time>2020-06-21T16:48:31.000Z</time>
      </trkpt>
      <trkpt lat="48.366043" lon="9.136675">
        <ele>827.964207</ele>
        <time>2020-06-21T16:48:32.000Z</time>
      </trkpt>
      <trkpt lat="48.366067" lon="9.136611">
        <ele>828.007807</ele>
        <time>2020-06-21T16:48:33.000Z</time>
      </trkpt>
      <trkpt lat="48.366113" lon="9.136486">
        <ele>828.092581</ele>
        <time>2020-06-21T16:48:35.000Z</time>
      </trkpt>
      <trkpt lat="48.366160" lon="9.136363">
        <ele>828.176761</ele>
        <time>2020-06-21T16:48:37.000Z</time>
      </trkpt>
      <trkpt lat="48.366275" lon="9.136045">
        <ele>828.391556</ele>
        <time>2020-06-21T16:48:42.000Z</time>
      </trkpt>
      <trkpt lat="48.366323" lon="9.135918">
        <ele>828.478239</ele>
        <time>2020-06-21T16:48:44.000Z</time>
      </trkpt>
      <trkpt lat="48.366347" lon="9.135852">
        <ele>828.522875</ele>
        <time>2020-06-21T16:48:45.000Z</time>
      </trkpt>
      <trkpt lat="48.366393" lon="9.135724">
        <ele>828.609210</ele>
        <time>2020-06-21T16:48:47.000Z</time>
      </trkpt>
      <trkpt lat="48.366438" lon="9.135597">
        <ele>828.694600</ele>
        <time>2020-06-21T16:48:49.000Z</time>
      </trkpt>
      <trkpt lat="48.366461" lon="9.135534">
        <ele>828.737247</ele>
        <time>2020-06-21T16:48:50.000Z</time>
      </trkpt>
      <trkpt lat="48.366484" lon="9.135473">
        <ele>828.782070</ele>
        <time>2020-06-21T16:48:51.000Z</time>
      </trkpt>
      <trkpt lat="48.366507" lon="9.135410">
        <ele>828.910309</ele>
        <time>2020-06-21T16:48:52.000Z</time>
      </trkpt>
      <trkpt lat="48.366529" lon="9.135346">
        <ele>829.038858</ele>
        <time>2020-06-21T16:48:53.000Z</time>
      </trkpt>
      <trkpt lat="48.366573" lon="9.135220">
        <ele>829.292793</ele>
        <time>2020-06-21T16:48:55.000Z</time>
      </trkpt>
      <trkpt lat="48.366635" lon="9.135034">
        <ele>829.664027</ele>
        <time>2020-06-21T16:48:58.000Z</time>
      </trkpt>
      <trkpt lat="48.366676" lon="9.134907">
        <ele>829.915918</ele>
        <time>2020-06-21T16:49:00.000Z</time>
      </trkpt>
      <trkpt lat="48.366734" lon="9.134716">
        <ele>830.290554</ele>
        <time>2020-06-21T16:49:03.000Z</time>
      </trkpt>
      <trkpt lat="48.366756" lon="9.134652">
        <ele>830.419103</ele>
        <time>2020-06-21T16:49:04.000Z</time>
      </trkpt>
      <trkpt lat="48.366842" lon="9.134405">
        <ele>830.916578</ele>
        <time>2020-06-21T16:49:08.000Z</time>
      </trkpt>
      <trkpt lat="48.366923" lon="9.134147">
        <ele>831.425633</ele>
        <time>2020-06-21T16:49:12.000Z</time>
      </trkpt>
      <trkpt lat="48.367147" lon="9.133577">
        <ele>832.607042</ele>
        <time>2020-06-21T16:49:21.000Z</time>
      </trkpt>
      <trkpt lat="48.367360" lon="9.133156">
        <ele>833.551054</ele>
        <time>2020-06-21T16:49:28.000Z</time>
      </trkpt>
      <trkpt lat="48.367458" lon="9.132986">
        <ele>832.804746</ele>
        <time>2020-06-21T16:49:31.000Z</time>
      </trkpt>
      <trkpt lat="48.367491" lon="9.132931">
        <ele>832.497906</ele>
        <time>2020-06-21T16:49:32.000Z</time>
      </trkpt>
      <trkpt lat="48.367524" lon="9.132876">
        <ele>832.191066</ele>
        <time>2020-06-21T16:49:33.000Z</time>
      </trkpt>
      <trkpt lat="48.367556" lon="9.132820">
        <ele>831.885241</ele>
        <time>2020-06-21T16:49:34.000Z</time>
      </trkpt>
      <trkpt lat="48.367621" lon="9.132706">
        <ele>831.263249</ele>
        <time>2020-06-21T16:49:36.000Z</time>
      </trkpt>
      <trkpt lat="48.367686" lon="9.132592">
        <ele>830.641258</ele>
        <time>2020-06-21T16:49:38.000Z</time>
      </trkpt>
      <trkpt lat="48.367787" lon="9.132419">
        <ele>829.687718</ele>
        <time>2020-06-21T16:49:41.000Z</time>
      </trkpt>
      <trkpt lat="48.367820" lon="9.132360">
        <ele>829.368396</ele>
        <time>2020-06-21T16:49:42.000Z</time>
      </trkpt>
      <trkpt lat="48.367887" lon="9.132241">
        <ele>828.722567</ele>
        <time>2020-06-21T16:49:44.000Z</time>
      </trkpt>
      <trkpt lat="48.367988" lon="9.132065">
        <ele>827.759663</ele>
        <time>2020-06-21T16:49:47.000Z</time>
      </trkpt>
      <trkpt lat="48.368227" lon="9.131653">
        <ele>825.495104</ele>
        <time>2020-06-21T16:49:54.000Z</time>
      </trkpt>
      <trkpt lat="48.368325" lon="9.131484">
        <ele>824.566345</ele>
        <time>2020-06-21T16:49:57.000Z</time>
      </trkpt>
      <trkpt lat="48.368380" lon="9.131332">
        <ele>823.849738</ele>
        <time>2020-06-21T16:50:00.000Z</time>
      </trkpt>
      <trkpt lat="48.368364" lon="9.131290">
        <ele>823.649287</ele>
        <time>2020-06-21T16:50:01.000Z</time>
      </trkpt>
      <trkpt lat="48.368318" lon="9.131279">
        <ele>823.359015</ele>
        <time>2020-06-21T16:50:03.000Z</time>
      </trkpt>
      <trkpt lat="48.368303" lon="9.131301">
        <ele>823.228496</ele>
        <time>2020-06-21T16:50:04.000Z</time>
      </trkpt>
      <trkpt lat="48.368297" lon="9.131378">
        <ele>822.907512</ele>
        <time>2020-06-21T16:50:07.000Z</time>
      </trkpt>
      <trkpt lat="48.368349" lon="9.131368">
        <ele>822.580809</ele>
        <time>2020-06-21T16:50:10.000Z</time>
      </trkpt>
      <trkpt lat="48.368367" lon="9.131339">
        <ele>822.416492</ele>
        <time>2020-06-21T16:50:11.000Z</time>
      </trkpt>
      <trkpt lat="48.368360" lon="9.131303">
        <ele>822.181322</ele>
        <time>2020-06-21T16:50:12.000Z</time>
      </trkpt>
      <trkpt lat="48.368339" lon="9.131286">
        <ele>821.945716</ele>
        <time>2020-06-21T16:50:13.000Z</time>
      </trkpt>
      <trkpt lat="48.368321" lon="9.131294">
        <ele>821.760266</ele>
        <time>2020-06-21T16:50:14.000Z</time>
      </trkpt>
      <trkpt lat="48.368334" lon="9.131362">
        <ele>821.295774</ele>
        <time>2020-06-21T16:50:16.000Z</time>
      </trkpt>
      <trkpt lat="48.368380" lon="9.131371">
        <ele>820.837422</ele>
        <time>2020-06-21T16:50:18.000Z</time>
      </trkpt>
      <trkpt lat="48.368407" lon="9.131341">
        <ele>820.505824</ele>
        <time>2020-06-21T16:50:19.000Z</time>
      </trkpt>
      <trkpt lat="48.368557" lon="9.131111">
        <ele>818.390099</ele>
        <time>2020-06-21T16:50:24.000Z</time>
      </trkpt>
      <trkpt lat="48.368589" lon="9.131059">
        <ele>817.924809</ele>
        <time>2020-06-21T16:50:25.000Z</time>
      </trkpt>
      <trkpt lat="48.368729" lon="9.130835">
        <ele>815.905959</ele>
        <time>2020-06-21T16:50:29.000Z</time>
      </trkpt>
      <trkpt lat="48.368764" lon="9.130777">
        <ele>815.391607</ele>
        <time>2020-06-21T16:50:30.000Z</time>
      </trkpt>
      <trkpt lat="48.368801" lon="9.130718">
        <ele>814.859010</ele>
        <time>2020-06-21T16:50:31.000Z</time>
      </trkpt>
      <trkpt lat="48.368837" lon="9.130658">
        <ele>814.328294</ele>
        <time>2020-06-21T16:50:32.000Z</time>
      </trkpt>
      <trkpt lat="48.368907" lon="9.130531">
        <ele>813.245052</ele>
        <time>2020-06-21T16:50:34.000Z</time>
      </trkpt>
      <trkpt lat="48.368982" lon="9.130402">
        <ele>812.119771</ele>
        <time>2020-06-21T16:50:36.000Z</time>
      </trkpt>
      <trkpt lat="48.369017" lon="9.130337">
        <ele>811.570538</ele>
        <time>2020-06-21T16:50:37.000Z</time>
      </trkpt>
      <trkpt lat="48.369089" lon="9.130203">
        <ele>810.439229</ele>
        <time>2020-06-21T16:50:39.000Z</time>
      </trkpt>
      <trkpt lat="48.369275" lon="9.129872">
        <ele>807.593404</ele>
        <time>2020-06-21T16:50:44.000Z</time>
      </trkpt>
      <trkpt lat="48.369348" lon="9.129742">
        <ele>806.476038</ele>
        <time>2020-06-21T16:50:46.000Z</time>
      </trkpt>
      <trkpt lat="48.369385" lon="9.129678">
        <ele>805.919122</ele>
        <time>2020-06-21T16:50:47.000Z</time>
      </trkpt>
      <trkpt lat="48.369421" lon="9.129611">
        <ele>805.353470</ele>
        <time>2020-06-21T16:50:48.000Z</time>
      </trkpt>
      <trkpt lat="48.369554" lon="9.129337">
        <ele>805.247766</ele>
        <time>2020-06-21T16:50:52.000Z</time>
      </trkpt>
      <trkpt lat="48.369617" lon="9.129200">
        <ele>805.702013</ele>
        <time>2020-06-21T16:50:54.000Z</time>
      </trkpt>
      <trkpt lat="48.369650" lon="9.129133">
        <ele>805.929398</ele>
        <time>2020-06-21T16:50:55.000Z</time>
      </trkpt>
      <trkpt lat="48.369820" lon="9.128721">
        <ele>807.251631</ele>
        <time>2020-06-21T16:51:01.000Z</time>
      </trkpt>
      <trkpt lat="48.369871" lon="9.128583">
        <ele>807.682148</ele>
        <time>2020-06-21T16:51:03.000Z</time>
      </trkpt>
      <trkpt lat="48.369895" lon="9.128512">
        <ele>807.899327</ele>
        <time>2020-06-21T16:51:04.000Z</time>
      </trkpt>
      <trkpt lat="48.369938" lon="9.128369">
        <ele>808.327254</ele>
        <time>2020-06-21T16:51:06.000Z</time>
      </trkpt>
      <trkpt lat="48.369979" lon="9.128225">
        <ele>808.754367</ele>
        <time>2020-06-21T16:51:08.000Z</time>
      </trkpt>
      <trkpt lat="48.370041" lon="9.128010">
        <ele>809.393345</ele>
        <time>2020-06-21T16:51:11.000Z</time>
      </trkpt>
      <trkpt lat="48.370061" lon="9.127938">
        <ele>809.606102</ele>
        <time>2020-06-21T16:51:12.000Z</time>
      </trkpt>
      <trkpt lat="48.370097" lon="9.127787">
        <ele>810.043467</ele>
        <time>2020-06-21T16:51:14.000Z</time>
      </trkpt>
      <trkpt lat="48.370187" lon="9.127413">
        <ele>811.127903</ele>
        <time>2020-06-21T16:51:19.000Z</time>
      </trkpt>
      <trkpt lat="48.370225" lon="9.127269">
        <ele>811.550316</ele>
        <time>2020-06-21T16:51:21.000Z</time>
      </trkpt>
      <trkpt lat="48.370264" lon="9.127127">
        <ele>811.969217</ele>
        <time>2020-06-21T16:51:23.000Z</time>
      </trkpt>
      <trkpt lat="48.370284" lon="9.127057">
        <ele>812.419621</ele>
        <time>2020-06-21T16:51:24.000Z</time>
      </trkpt>
      <trkpt lat="48.370350" lon="9.126846">
        <ele>813.959881</ele>
        <time>2020-06-21T16:51:27.000Z</time>
      </trkpt>
      <trkpt lat="48.370396" lon="9.126707">
        <ele>814.985483</ele>
        <time>2020-06-21T16:51:29.000Z</time>
      </trkpt>
      <trkpt lat="48.370446" lon="9.126568">
        <ele>816.029422</ele>
        <time>2020-06-21T16:51:31.000Z</time>
      </trkpt>
      <trkpt lat="48.370528" lon="9.126369">
        <ele>817.575978</ele>
        <time>2020-06-21T16:51:34.000Z</time>
      </trkpt>
      <trkpt lat="48.370619" lon="9.126182">
        <ele>819.106887</ele>
        <time>2020-06-21T16:51:37.000Z</time>
      </trkpt>
      <trkpt lat="48.370750" lon="9.125939">
        <ele>821.173675</ele>
        <time>2020-06-21T16:51:41.000Z</time>
      </trkpt>
      <trkpt lat="48.370815" lon="9.125822">
        <ele>822.180969</ele>
        <time>2020-06-21T16:51:43.000Z</time>
      </trkpt>
      <trkpt lat="48.370922" lon="9.125659">
        <ele>823.694375</ele>
        <time>2020-06-21T16:51:46.000Z</time>
      </trkpt>
      <trkpt lat="48.371025" lon="9.125506">
        <ele>825.132966</ele>
        <time>2020-06-21T16:51:49.000Z</time>
      </trkpt>
      <trkpt lat="48.371063" lon="9.125459">
        <ele>825.621909</ele>
        <time>2020-06-21T16:51:50.000Z</time>
      </trkpt>
      <trkpt lat="48.371101" lon="9.125411">
        <ele>826.115070</ele>
        <time>2020-06-21T16:51:51.000Z</time>
      </trkpt>
      <trkpt lat="48.371140" lon="9.125363">
        <ele>826.615888</ele>
        <time>2020-06-21T16:51:52.000Z</time>
      </trkpt>
      <trkpt lat="48.371216" lon="9.125265">
        <ele>827.610752</ele>
        <time>2020-06-21T16:51:54.000Z</time>
      </trkpt>
      <trkpt lat="48.371289" lon="9.125167">
        <ele>828.583159</ele>
        <time>2020-06-21T16:51:56.000Z</time>
      </trkpt>
      <trkpt lat="48.371361" lon="9.125071">
        <ele>829.539359</ele>
        <time>2020-06-21T16:51:58.000Z</time>
      </trkpt>
      <trkpt lat="48.371434" lon="9.124973">
        <ele>829.887710</ele>
        <time>2020-06-21T16:52:00.000Z</time>
      </trkpt>
      <trkpt lat="48.371472" lon="9.124925">
        <ele>829.887710</ele>
        <time>2020-06-21T16:52:01.000Z</time>
      </trkpt>
      <trkpt lat="48.371584" lon="9.124777">
        <ele>829.887710</ele>
        <time>2020-06-21T16:52:04.000Z</time>
      </trkpt>
      <trkpt lat="48.371753" lon="9.124509">
        <ele>829.887710</ele>
        <time>2020-06-21T16:52:09.000Z</time>
      </trkpt>
      <trkpt lat="48.371852" lon="9.124345">
        <ele>829.887710</ele>
        <time>2020-06-21T16:52:12.000Z</time>
      </trkpt>
      <trkpt lat="48.371975" lon="9.124121">
        <ele>829.887710</ele>
        <time>2020-06-21T16:52:16.000Z</time>
      </trkpt>
      <trkpt lat="48.372014" lon="9.124076">
        <ele>829.887710</ele>
        <time>2020-06-21T16:52:17.000Z</time>
      </trkpt>
      <trkpt lat="48.372061" lon="9.124054">
        <ele>829.887710</ele>
        <time>2020-06-21T16:52:18.000Z</time>
      </trkpt>
      <trkpt lat="48.372156" lon="9.124008">
        <ele>829.887710</ele>
        <time>2020-06-21T16:52:20.000Z</time>
      </trkpt>
      <trkpt lat="48.372226" lon="9.123917">
        <ele>829.887710</ele>
        <time>2020-06-21T16:52:22.000Z</time>
      </trkpt>
      <trkpt lat="48.372250" lon="9.123860">
        <ele>829.887710</ele>
        <time>2020-06-21T16:52:23.000Z</time>
      </trkpt>
      <trkpt lat="48.372316" lon="9.123692">
        <ele>829.887710</ele>
        <time>2020-06-21T16:52:26.000Z</time>
      </trkpt>
      <trkpt lat="48.372359" lon="9.123594">
        <ele>829.887710</ele>
        <time>2020-06-21T16:52:28.000Z</time>
      </trkpt>
      <trkpt lat="48.372394" lon="9.123515">
        <ele>829.887710</ele>
        <time>2020-06-21T16:52:30.000Z</time>
      </trkpt>
      <trkpt lat="48.372443" lon="9.123424">
        <ele>829.887710</ele>
        <time>2020-06-21T16:52:35.000Z</time>
      </trkpt>
      <trkpt lat="48.372441" lon="9.123409">
        <ele>829.887710</ele>
        <time>2020-06-21T16:52:37.000Z</time>
      </trkpt>
    </trkseg>
  </trk>
</gpx>